{
  "type": "FeatureCollection",
  "features": [
    {
      "type": "Feature",
      "properties": {
        "norad_id": 26766,
        "name": "INTELSAT 10 (IS-10)",
        "group": "intelsat",
        "lat": -8.000075187171237,
        "lon": -51.216208792126835,
        "alt_km": 36094.58627513168,
        "timestamp": "2025-12-12T05:47:28.439382+00:00",
        "meta_object_name": "INTELSAT 10 (IS-10)",
        "meta_object_id": "2001-019A",
        "meta_epoch": "2025-12-11T14:11:41.135712",
        "meta_mean_motion": 0.99078808,
        "meta_eccentricity": 0.00077853,
        "meta_inclination": 8.6274,
        "meta_ra_of_asc_node": 61.1692,
        "meta_arg_of_pericenter": 224.4537,
        "meta_mean_anomaly": 151.554,
        "meta_ephemeris_type": 0,
        "meta_classification_type": "U",
        "meta_norad_cat_id": 26766,
        "meta_element_set_no": 999,
        "meta_rev_at_epoch": 4372,
        "meta_bstar": 0,
        "meta_mean_motion_dot": -2.86e-06,
        "meta_mean_motion_ddot": 0,
        "tle_line1": "1 26766U 01019A   25345.59144833 -.00000286  00000+0  00000+0 0  9999",
        "tle_line2": "2 26766   8.6274  61.1692 0007785 224.4537 151.5540  0.99078808 43721"
      },
      "geometry": {
        "type": "Point",
        "coordinates": [
          -51.216208792126835,
          -8.000075187171237
        ]
      }
    },
    {
      "type": "Feature",
      "properties": {
        "norad_id": 26900,
        "name": "INTELSAT 902 (IS-902)",
        "group": "intelsat",
        "lat": 3.921779787305754,
        "lon": 117.78894545957334,
        "alt_km": 35800.07426543632,
        "timestamp": "2025-12-12T05:47:28.439406+00:00",
        "meta_object_name": "INTELSAT 902 (IS-902)",
        "meta_object_id": "2001-039A",
        "meta_epoch": "2025-12-11T04:42:42.842016",
        "meta_mean_motion": 1.00272526,
        "meta_eccentricity": 0.00044264,
        "meta_inclination": 5.6424,
        "meta_ra_of_asc_node": 74.0881,
        "meta_arg_of_pericenter": 184.9809,
        "meta_mean_anomaly": 201.6699,
        "meta_ephemeris_type": 0,
        "meta_classification_type": "U",
        "meta_norad_cat_id": 26900,
        "meta_element_set_no": 999,
        "meta_rev_at_epoch": 8881,
        "meta_bstar": 0,
        "meta_mean_motion_dot": -2.78e-06,
        "meta_mean_motion_ddot": 0,
        "tle_line1": "1 26900U 01039A   25345.19632919 -.00000278  00000+0  00000+0 0  9995",
        "tle_line2": "2 26900   5.6424  74.0881 0004426 184.9809 201.6699  1.00272526 88816"
      },
      "geometry": {
        "type": "Point",
        "coordinates": [
          117.78894545957334,
          3.921779787305754
        ]
      }
    },
    {
      "type": "Feature",
      "properties": {
        "norad_id": 27380,
        "name": "INTELSAT 904 (IS-904)",
        "group": "intelsat",
        "lat": 5.862244800180687,
        "lon": 136.40753321524983,
        "alt_km": 35791.03853122447,
        "timestamp": "2025-12-12T05:47:28.439421+00:00",
        "meta_object_name": "INTELSAT 904 (IS-904)",
        "meta_object_id": "2002-007A",
        "meta_epoch": "2025-12-11T15:04:21.093888",
        "meta_mean_motion": 1.00272838,
        "meta_eccentricity": 0.00015232,
        "meta_inclination": 6.4523,
        "meta_ra_of_asc_node": 71.4451,
        "meta_arg_of_pericenter": 223.2584,
        "meta_mean_anomaly": 340.4619,
        "meta_ephemeris_type": 0,
        "meta_classification_type": "U",
        "meta_norad_cat_id": 27380,
        "meta_element_set_no": 999,
        "meta_rev_at_epoch": 4988,
        "meta_bstar": 0,
        "meta_mean_motion_dot": -2.19e-06,
        "meta_mean_motion_ddot": 0,
        "tle_line1": "1 27380U 02007A   25345.62802192 -.00000219  00000+0  00000+0 0  9999",
        "tle_line2": "2 27380   6.4523  71.4451 0001523 223.2584 340.4619  1.00272838 49888"
      },
      "geometry": {
        "type": "Point",
        "coordinates": [
          136.40753321524983,
          5.862244800180687
        ]
      }
    },
    {
      "type": "Feature",
      "properties": {
        "norad_id": 27426,
        "name": "DIRECTV 5 (TEMPO 1)",
        "group": "intelsat",
        "lat": -1.4649501827768134,
        "lon": 58.00813310653077,
        "alt_km": 35798.54137906042,
        "timestamp": "2025-12-12T05:47:28.439435+00:00",
        "meta_object_name": "DIRECTV 5 (TEMPO 1)",
        "meta_object_id": "2002-023A",
        "meta_epoch": "2025-12-11T16:24:43.396704",
        "meta_mean_motion": 1.00271902,
        "meta_eccentricity": 0.00035071,
        "meta_inclination": 4.3998,
        "meta_ra_of_asc_node": 77.665,
        "meta_arg_of_pericenter": 194.3782,
        "meta_mean_anomaly": 304.6537,
        "meta_ephemeris_type": 0,
        "meta_classification_type": "U",
        "meta_norad_cat_id": 27426,
        "meta_element_set_no": 999,
        "meta_rev_at_epoch": 8624,
        "meta_bstar": 0,
        "meta_mean_motion_dot": -5e-07,
        "meta_mean_motion_ddot": 0,
        "tle_line1": "1 27426U 02023A   25345.68383561 -.00000050  00000+0  00000+0 0  9991",
        "tle_line2": "2 27426   4.3998  77.6650 0003507 194.3782 304.6537  1.00271902 86246"
      },
      "geometry": {
        "type": "Point",
        "coordinates": [
          58.00813310653077,
          -1.4649501827768134
        ]
      }
    },
    {
      "type": "Feature",
      "properties": {
        "norad_id": 27438,
        "name": "INTELSAT 905 (IS-905)",
        "group": "intelsat",
        "lat": -4.12131594724548,
        "lon": 31.057508094627643,
        "alt_km": 35792.57012772422,
        "timestamp": "2025-12-12T05:47:28.439447+00:00",
        "meta_object_name": "INTELSAT 905 (IS-905)",
        "meta_object_id": "2002-027A",
        "meta_epoch": "2025-12-11T12:11:37.320576",
        "meta_mean_motion": 1.00272852,
        "meta_eccentricity": 0.00027503,
        "meta_inclination": 6.283,
        "meta_ra_of_asc_node": 72.0704,
        "meta_arg_of_pericenter": 196.0234,
        "meta_mean_anomaly": 218.0777,
        "meta_ephemeris_type": 0,
        "meta_classification_type": "U",
        "meta_norad_cat_id": 27438,
        "meta_element_set_no": 999,
        "meta_rev_at_epoch": 4948,
        "meta_bstar": 0,
        "meta_mean_motion_dot": 1e-06,
        "meta_mean_motion_ddot": 0,
        "tle_line1": "1 27438U 02027A   25345.50807084  .00000100  00000+0  00000+0 0  9995",
        "tle_line2": "2 27438   6.2830  72.0704 0002750 196.0234 218.0777  1.00272852 49488"
      },
      "geometry": {
        "type": "Point",
        "coordinates": [
          31.057508094627643,
          -4.12131594724548
        ]
      }
    },
    {
      "type": "Feature",
      "properties": {
        "norad_id": 27445,
        "name": "GALAXY 3C (G-3C)",
        "group": "intelsat",
        "lat": -0.39751812341018933,
        "lon": 73.19123671558087,
        "alt_km": 35786.90306966855,
        "timestamp": "2025-12-12T05:47:28.439478+00:00",
        "meta_object_name": "GALAXY 3C (G-3C)",
        "meta_object_id": "2002-030A",
        "meta_epoch": "2025-12-11T23:19:58.162944",
        "meta_mean_motion": 1.00271461,
        "meta_eccentricity": 0.00011057,
        "meta_inclination": 3.2625,
        "meta_ra_of_asc_node": 80.515,
        "meta_arg_of_pericenter": 90.8442,
        "meta_mean_anomaly": 164.6949,
        "meta_ephemeris_type": 0,
        "meta_classification_type": "U",
        "meta_norad_cat_id": 27445,
        "meta_element_set_no": 999,
        "meta_rev_at_epoch": 4461,
        "meta_bstar": 0,
        "meta_mean_motion_dot": -1.44e-06,
        "meta_mean_motion_ddot": 0,
        "tle_line1": "1 27445U 02030A   25345.97220096 -.00000144  00000+0  00000+0 0  9999",
        "tle_line2": "2 27445   3.2625  80.5150 0001105  90.8442 164.6949  1.00271461 44611"
      },
      "geometry": {
        "type": "Point",
        "coordinates": [
          73.19123671558087,
          -0.39751812341018933
        ]
      }
    },
    {
      "type": "Feature",
      "properties": {
        "norad_id": 27513,
        "name": "INTELSAT 906 (IS-906)",
        "group": "intelsat",
        "lat": 2.0700535979475543,
        "lon": -127.76091878490678,
        "alt_km": 35764.54828351441,
        "timestamp": "2025-12-12T05:47:28.439491+00:00",
        "meta_object_name": "INTELSAT 906 (IS-906)",
        "meta_object_id": "2002-041A",
        "meta_epoch": "2025-12-11T20:06:53.261280",
        "meta_mean_motion": 1.00271417,
        "meta_eccentricity": 0.00061629,
        "meta_inclination": 5.3265,
        "meta_ra_of_asc_node": 75.242,
        "meta_arg_of_pericenter": 192.0283,
        "meta_mean_anomaly": 179.375,
        "meta_ephemeris_type": 0,
        "meta_classification_type": "U",
        "meta_norad_cat_id": 27513,
        "meta_element_set_no": 999,
        "meta_rev_at_epoch": 8515,
        "meta_bstar": 0,
        "meta_mean_motion_dot": 2.1e-07,
        "meta_mean_motion_ddot": 0,
        "tle_line1": "1 27513U 02041A   25345.83811645  .00000021  00000+0  00000+0 0  9991",
        "tle_line2": "2 27513   5.3265  75.2420 0006162 192.0283 179.3750  1.00271417 85155"
      },
      "geometry": {
        "type": "Point",
        "coordinates": [
          -127.76091878490678,
          2.0700535979475543
        ]
      }
    }
  ]
}